{
"type": "FeatureCollection",
"name": "port_au_prince",
"crs": { "type": "name", "properties": { "name": "urn:ogc:def:crs:OGC:1.3:CRS84" } },
"features": [
{ "type": "Feature", "properties": { "adm2_name": "Port-au-Prince", "adm2_name1": "Port-au-Prince", "adm2_name2": null, "adm2_name3": null, "adm2_pcode": "HT0111", "adm1_name": "West", "adm1_name1": "Ouest", "adm1_name2": "Lwès", "adm1_name3": null, "adm1_pcode": "HT01", "adm0_name": "Haiti", "adm0_name1": "Haïti", "adm0_name2": "Ayiti", "adm0_name3": null, "adm0_pcode": "HT", "valid_on": "2018-11-29T00:00:00", "valid_to": null, "area_sqkm": 34.21318104, "version": "v01", "lang": "en", "lang1": "fr", "lang2": "ht", "lang3": null, "adm2_ref_name1": "Port-au-Prince", "center_lat": 18.53111373, "center_lon": -72.33330629 }, "geometry": { "type": "Polygon", "coordinates": [ [ [ -72.348394993999932, 18.565503904000025 ], [ -72.348512144999972, 18.565093403000049 ], [ -72.348481938999953, 18.565046750000022 ], [ -72.347385827999858, 18.565022757000065 ], [ -72.34732119999984, 18.564299389000098 ], [ -72.347096179999937, 18.56354676899997 ], [ -72.347796962999951, 18.561091306000151 ], [ -72.348575265999955, 18.560352704000138 ], [ -72.349227685999949, 18.559802017000152 ], [ -72.350929022999935, 18.558769314000017 ], [ -72.351042198999949, 18.558185043000094 ], [ -72.352031456999896, 18.558340771000189 ], [ -72.352103109999973, 18.556925564000096 ], [ -72.348262110999883, 18.556113034000191 ], [ -72.347682718999977, 18.55561726000019 ], [ -72.347948748999954, 18.554943682000044 ], [ -72.348858663999863, 18.554270215000031 ], [ -72.347625987999834, 18.553160170000069 ], [ -72.347626027999922, 18.553160171000172 ], [ -72.347626065999918, 18.553160171000172 ], [ -72.348855167999943, 18.552100797000094 ], [ -72.349575903999948, 18.550384672000121 ], [ -72.350376510999922, 18.54978531800009 ], [ -72.350180241999965, 18.549005929000032 ], [ -72.349163366999846, 18.547411387000068 ], [ -72.349222790999988, 18.544179293000127 ], [ -72.350501045999863, 18.543445525000038 ], [ -72.350906025999961, 18.542907331000094 ], [ -72.351258156999961, 18.542581197000061 ], [ -72.352485995999871, 18.541308245000096 ], [ -72.353832983999951, 18.541198565000059 ], [ -72.354571053999905, 18.541563551000081 ], [ -72.355769916999975, 18.540989249000177 ], [ -72.356367078999938, 18.540116425000065 ], [ -72.356492810999839, 18.539332611000077 ], [ -72.357534781999902, 18.539074897000035 ], [ -72.357741761999989, 18.538510259000077 ], [ -72.35777240099992, 18.538132390000158 ], [ -72.357609801999956, 18.537420650000058 ], [ -72.358111322999889, 18.537049371000137 ], [ -72.358582569999896, 18.537032310000086 ], [ -72.359130017999973, 18.536898038000174 ], [ -72.360075495999979, 18.536674802000164 ], [ -72.360464403999913, 18.535568820000151 ], [ -72.359995275999893, 18.535046910000119 ], [ -72.360409634999826, 18.534291142000086 ], [ -72.360817569999824, 18.533902565 ], [ -72.36191501299993, 18.53473778700004 ], [ -72.362579783999877, 18.535030841000093 ], [ -72.362948997999979, 18.535201582000127 ], [ -72.363156827999944, 18.536197631 ], [ -72.36352793899988, 18.536250123000116 ], [ -72.363589863999948, 18.53524168000007 ], [ -72.363572536999868, 18.534518969000032 ], [ -72.363752616999932, 18.533889391000173 ], [ -72.363908164999941, 18.533006578000027 ], [ -72.366423520999945, 18.533818225000118 ], [ -72.3662826179999, 18.534444109000049 ], [ -72.366957426999988, 18.534801032000189 ], [ -72.367684052999948, 18.534955621000108 ], [ -72.368025891999935, 18.534274029000187 ], [ -72.370640133999927, 18.533570015 ], [ -72.369328554999981, 18.530192367000154 ], [ -72.369386316999964, 18.526418387000035 ], [ -72.369393365999827, 18.523483544000101 ], [ -72.371156305999932, 18.520248015000163 ], [ -72.368001299999946, 18.516709289000119 ], [ -72.368944569999883, 18.51321858600005 ], [ -72.367136451999954, 18.510132068000132 ], [ -72.36700349399996, 18.50644571700019 ], [ -72.368488292999984, 18.502818089000073 ], [ -72.368357197999956, 18.500865623000152 ], [ -72.36829447599996, 18.50001587700001 ], [ -72.366591997999933, 18.498077746000149 ], [ -72.364573032999942, 18.49702911900016 ], [ -72.361440295999898, 18.497021561000054 ], [ -72.361440217999984, 18.497021566000171 ], [ -72.357325014999958, 18.497506004000115 ], [ -72.357324938999966, 18.497506010999984 ], [ -72.353024938999965, 18.497698682000077 ], [ -72.35185205099998, 18.499365283000031 ], [ -72.350850449999882, 18.499754381000059 ], [ -72.329070275999982, 18.502579209000032 ], [ -72.320722315999944, 18.505194731000074 ], [ -72.320536902999947, 18.505513153000095 ], [ -72.320017624999878, 18.506114576000073 ], [ -72.319646745999933, 18.506538979000084 ], [ -72.319053108999924, 18.506927991000111 ], [ -72.318162636999887, 18.507316944000081 ], [ -72.317365537999933, 18.507560979000118 ], [ -72.317123794999986, 18.507634990000099 ], [ -72.316121906999967, 18.507705365000163 ], [ -72.315268425999989, 18.507598811000037 ], [ -72.31163288099998, 18.510392786000182 ], [ -72.310445704999893, 18.511559962000149 ], [ -72.310000697999953, 18.512479843000108 ], [ -72.309444763999863, 18.514602699000079 ], [ -72.30888837099991, 18.515451744000075 ], [ -72.308109376999937, 18.516583722000121 ], [ -72.307256266999957, 18.517857195999966 ], [ -72.307367858999953, 18.518706542000075 ], [ -72.306218078999962, 18.521182952000174 ], [ -72.306440844999941, 18.521572358000071 ], [ -72.306886483999847, 18.522598724999966 ], [ -72.307109238999885, 18.523058821000063 ], [ -72.30714670499998, 18.524120449000122 ], [ -72.307146960999887, 18.525075825000101 ], [ -72.306701653999937, 18.5253233520001 ], [ -72.306182202999935, 18.525853849000043 ], [ -72.305514294999909, 18.526313523000056 ], [ -72.304883520999851, 18.526525537000168 ], [ -72.304772278999963, 18.526879392000069 ], [ -72.304623905999961, 18.527126997000039 ], [ -72.304252814999984, 18.527091456 ], [ -72.303844474999948, 18.526808100000039 ], [ -72.303176409999935, 18.526595517000089 ], [ -72.302285850999965, 18.526807333000022 ], [ -72.30180347899983, 18.52726711300005 ], [ -72.301395325999977, 18.527479224000103 ], [ -72.301321176999977, 18.528045410000061 ], [ -72.301120050999941, 18.529022281000152 ], [ -72.301358668999967, 18.52946085100001 ], [ -72.301952669999935, 18.530239627000185 ], [ -72.300743609999984, 18.530569848000027 ], [ -72.300658037999824, 18.530595710000057 ], [ -72.300258698999983, 18.530698341000118 ], [ -72.30005914599991, 18.530749657000115 ], [ -72.299746101999972, 18.530790321999973 ], [ -72.299527931999933, 18.530814287000112 ], [ -72.299338672999966, 18.53081158100008 ], [ -72.299197844999981, 18.530737342000066 ], [ -72.299132436999969, 18.530682237 ], [ -72.298937358999979, 18.53045374200002 ], [ -72.298769259999972, 18.530306795000058 ], [ -72.29852466899996, 18.53020398700005 ], [ -72.298364450999941, 18.53015655300004 ], [ -72.298137908999934, 18.530117200000063 ], [ -72.297646613999973, 18.530056002000151 ], [ -72.297523537999894, 18.530054240000027 ], [ -72.297326860999988, 18.530081581000047 ], [ -72.297372320999898, 18.530094690000169 ], [ -72.297258839999927, 18.530267039000137 ], [ -72.297027959999923, 18.530444029000023 ], [ -72.296979059999956, 18.530654590000154 ], [ -72.296941725999886, 18.530958577000149 ], [ -72.296910771999933, 18.531268884000156 ], [ -72.296872655999948, 18.531622606000099 ], [ -72.296785988999886, 18.532174524000141 ], [ -72.296728576999953, 18.532509281000046 ], [ -72.296708016999844, 18.532987481000134 ], [ -72.296692733999976, 18.533130270000129 ], [ -72.296664692999968, 18.533260326000061 ], [ -72.296556414999827, 18.533513642000059 ], [ -72.296448215999931, 18.533766869000146 ], [ -72.296373284999959, 18.533964688000083 ], [ -72.296323619999839, 18.534218752000129 ], [ -72.296327143999861, 18.534411464000129 ], [ -72.296452962999979, 18.534705419000034 ], [ -72.296574594999981, 18.53484384799998 ], [ -72.296892494999895, 18.534916742000178 ], [ -72.297106357999951, 18.534988238000039 ], [ -72.297109199999909, 18.535224456000037 ], [ -72.297150085999988, 18.535523334000118 ], [ -72.297157841999933, 18.53585902400016 ], [ -72.297053283999901, 18.536292596000123 ], [ -72.296951853999929, 18.536527321000108 ], [ -72.296728522999956, 18.537052365000022 ], [ -72.296588301999975, 18.537286535000078 ], [ -72.296468747999938, 18.537427739000179 ], [ -72.29646859199994, 18.537427740999988 ], [ -72.296155737999982, 18.537435716000061 ], [ -72.29607115399989, 18.537428275000082 ], [ -72.296115266999891, 18.537522168000123 ], [ -72.296383580999986, 18.537874048000106 ], [ -72.297052099999974, 18.538436688000104 ], [ -72.297613019999915, 18.538817583000082 ], [ -72.2981955059999, 18.539068328000155 ], [ -72.298672226999827, 18.539000576000035 ], [ -72.298672304999911, 18.539000577000138 ], [ -72.298672383999929, 18.539000579000117 ], [ -72.299131926999848, 18.539181218000067 ], [ -72.299519863999876, 18.539373200000114 ], [ -72.300240659999929, 18.539526426 ], [ -72.30057252499995, 18.539555993000079 ], [ -72.300572679999959, 18.539555999000072 ], [ -72.300911272999883, 18.539554704000068 ], [ -72.301238220999949, 18.539484714000139 ], [ -72.301697597999862, 18.539273790999971 ], [ -72.301926261999938, 18.539233543000023 ], [ -72.302406220999956, 18.539377180000088 ], [ -72.302833673999885, 18.53953866300003 ], [ -72.303326397999967, 18.539694849 ], [ -72.303533792999986, 18.539766155000052 ], [ -72.304085502999897, 18.539904584000055 ], [ -72.304553583999905, 18.539979611000149 ], [ -72.304752356999927, 18.540187571000104 ], [ -72.304914056999962, 18.540245764000019 ], [ -72.305066348999958, 18.54009256300003 ], [ -72.305295402999889, 18.540027488000078 ], [ -72.305596768999976, 18.539926159000117 ], [ -72.306041940999933, 18.539789505000044 ], [ -72.306323325999983, 18.539712717000043 ], [ -72.306591675999982, 18.539635833000091 ], [ -72.306938153999965, 18.539559973000053 ], [ -72.307147012999906, 18.539538035000191 ], [ -72.307848405999948, 18.539684816000147 ], [ -72.307932796999978, 18.53970461800003 ], [ -72.308167626999989, 18.539689367999983 ], [ -72.308305713999857, 18.539610534000076 ], [ -72.308372929999905, 18.539480944000161 ], [ -72.308418217999929, 18.539500278000162 ], [ -72.308865620999882, 18.539649574000066 ], [ -72.309196474999908, 18.539728864000097 ], [ -72.309422606999988, 18.539850177000062 ], [ -72.309919753999907, 18.540143187000183 ], [ -72.310281152999949, 18.540365828 ], [ -72.310565201999907, 18.540537711000127 ], [ -72.310772096999983, 18.540646289000051 ], [ -72.311083052999948, 18.540750120000041 ], [ -72.311812917999873, 18.541158302000042 ], [ -72.312059228999829, 18.541242612000076 ], [ -72.312359038999944, 18.54124065100018 ], [ -72.312572627999941, 18.541330725000023 ], [ -72.312708050999959, 18.54143205500003 ], [ -72.312876738999876, 18.541477973000099 ], [ -72.313116358999878, 18.541555957000185 ], [ -72.313277014999869, 18.541701162000038 ], [ -72.31386300499986, 18.542144575 ], [ -72.313973370999918, 18.542170974000157 ], [ -72.314179900999875, 18.542298232 ], [ -72.314314682999907, 18.542430700000182 ], [ -72.31437222999989, 18.542499863000103 ], [ -72.31466930299996, 18.542678154000043 ], [ -72.315011686999867, 18.54286946000002 ], [ -72.315218080999955, 18.542990486000122 ], [ -72.315340898999921, 18.543054348000055 ], [ -72.315670735999959, 18.543214417000058 ], [ -72.315947947999973, 18.543404793000036 ], [ -72.316141251999966, 18.543544321000184 ], [ -72.316385647999937, 18.543746600000134 ], [ -72.316560021999976, 18.54384857000008 ], [ -72.316506717999914, 18.543922386000133 ], [ -72.316367757999956, 18.544057099000156 ], [ -72.316255156999887, 18.544173589000025 ], [ -72.316266733999953, 18.544267016000049 ], [ -72.316338823999956, 18.544659599999989 ], [ -72.31642897099988, 18.545145612000056 ], [ -72.316490551999834, 18.545376439000108 ], [ -72.316573490999929, 18.545489478000093 ], [ -72.31675391899995, 18.545628823000186 ], [ -72.317004637999901, 18.545831281000062 ], [ -72.317314599999975, 18.546009663000063 ], [ -72.31731061999983, 18.546264385000029 ], [ -72.317309699999953, 18.546742964000089 ], [ -72.31733897099997, 18.547787505000088 ], [ -72.31729374899993, 18.54817842 ], [ -72.317228139999941, 18.548624932 ], [ -72.317115050999973, 18.548772471000063 ], [ -72.316962369999885, 18.548950597000044 ], [ -72.316854226999908, 18.549216296999987 ], [ -72.316797424999891, 18.549513784 ], [ -72.316792762999967, 18.549812014000167 ], [ -72.316741253999965, 18.550190381000107 ], [ -72.316704139999899, 18.55048200900012 ], [ -72.316706733999979, 18.550730595000061 ], [ -72.316762341999947, 18.550924051000095 ], [ -72.31685769499984, 18.551062186000081 ], [ -72.317012, 18.551194839000118 ], [ -72.317219707999925, 18.551247538000098 ], [ -72.317362900999967, 18.551262034000047 ], [ -72.317645246999973, 18.551539515 ], [ -72.317863661999922, 18.551741424000113 ], [ -72.318096052999977, 18.551768382000034 ], [ -72.318230627999924, 18.55160995100016 ], [ -72.318491642999959, 18.551588833000039 ], [ -72.318842663999931, 18.551643468000179 ], [ -72.31884270799992, 18.551643467000076 ], [ -72.319065269999953, 18.551572067000052 ], [ -72.319405000999836, 18.551514779000115 ], [ -72.319601420999902, 18.551455454000063 ], [ -72.319824107999978, 18.551383953000141 ], [ -72.319942315999981, 18.551323517000071 ], [ -72.320164031999923, 18.551314207000019 ], [ -72.320449487999838, 18.551392835000172 ], [ -72.320696068999894, 18.551471001000039 ], [ -72.320943118999935, 18.551499332000162 ], [ -72.320943195999916, 18.551499333000095 ], [ -72.320943272999841, 18.551499327999977 ], [ -72.321203975999936, 18.551478213000109 ], [ -72.321687482999948, 18.551398044000109 ], [ -72.322301263999918, 18.551319722000073 ], [ -72.322629120999977, 18.551187685000059 ], [ -72.323125699999935, 18.55109523800013 ], [ -72.323959449999904, 18.551119524000171 ], [ -72.324727831999894, 18.551155245000018 ], [ -72.324727987999893, 18.551155251000012 ], [ -72.325247961999935, 18.551224827999988 ], [ -72.325688488999958, 18.551392590000034 ], [ -72.326063065999961, 18.551609252000048 ], [ -72.326477910999984, 18.551751820000106 ], [ -72.326603553999917, 18.551910785000189 ], [ -72.326736171999983, 18.551917627000023 ], [ -72.326914399999964, 18.551758005000181 ], [ -72.327145515999916, 18.551556244000096 ], [ -72.327323872999841, 18.551403392000054 ], [ -72.327462929999967, 18.551262353000027 ], [ -72.327509868999925, 18.551176074000068 ], [ -72.327564525999946, 18.551015241000187 ], [ -72.327611754999964, 18.550910278000117 ], [ -72.327722321999943, 18.550924211999984 ], [ -72.328111773999922, 18.551022991000082 ], [ -72.328299702999914, 18.551087768000059 ], [ -72.328688670999952, 18.551217595000026 ], [ -72.329020240999967, 18.551278265000064 ], [ -72.329273497999964, 18.551319138000167 ], [ -72.329558554999892, 18.551428804000182 ], [ -72.329805295999961, 18.551482043000078 ], [ -72.329994173999978, 18.551490855000111 ], [ -72.330189818999827, 18.551481254000066 ], [ -72.33031380999995, 18.55147055000009 ], [ -72.330391749999933, 18.551484111000036 ], [ -72.330949100999931, 18.551690892000011 ], [ -72.33144057699991, 18.551921568000125 ], [ -72.33202423299997, 18.552103799000179 ], [ -72.332374873999981, 18.552183332000084 ], [ -72.332712287999982, 18.552275136000048 ], [ -72.333360851999828, 18.552470740000047 ], [ -72.333958240999948, 18.552603504000047 ], [ -72.33412847399984, 18.552556163000133 ], [ -72.334347797999953, 18.552696042000036 ], [ -72.334800796999957, 18.552901337000094 ], [ -72.3350462329999, 18.553053954000177 ], [ -72.335459507999985, 18.553283515000089 ], [ -72.335769504999973, 18.553461871000081 ], [ -72.336234307999973, 18.553741904999981 ], [ -72.337217644999896, 18.554215695000096 ], [ -72.337488959999973, 18.554356305000056 ], [ -72.337488574999952, 18.554381128000045 ], [ -72.337395974999936, 18.554466855000101 ], [ -72.337115675999883, 18.554910348000135 ], [ -72.336887432999958, 18.555329747000087 ], [ -72.336620430999972, 18.555736229000161 ], [ -72.336193989999856, 18.556339266000066 ], [ -72.336127538999961, 18.556425362000084 ], [ -72.335968871999967, 18.556572270000174 ], [ -72.335772448999876, 18.556631612000103 ], [ -72.335485160999895, 18.556664841999975 ], [ -72.335302543999887, 18.556674721000036 ], [ -72.335027059999845, 18.556807519000188 ], [ -72.334683030999884, 18.5571258760001 ], [ -72.334418995999897, 18.55734587 ], [ -72.334179794999898, 18.557640788000072 ], [ -72.334039490999942, 18.557901799000092 ], [ -72.333746552999855, 18.55845453500018 ], [ -72.333616105999965, 18.558689416000163 ], [ -72.334238507999885, 18.558897109000043 ], [ -72.334755658999939, 18.559165429000018 ], [ -72.335376749999909, 18.559447675000115 ], [ -72.335946433999879, 18.559691906000182 ], [ -72.336647466999977, 18.559998594000149 ], [ -72.336648310999976, 18.559998937999978 ], [ -72.337409626999886, 18.560309166000081 ], [ -72.338602731999913, 18.560777157000189 ], [ -72.33897337999997, 18.560942460000092 ], [ -72.339584010999943, 18.561235651000061 ], [ -72.340100292999921, 18.56161644000008 ], [ -72.340576507999913, 18.562174524000056 ], [ -72.340999194999881, 18.562589563000188 ], [ -72.341437392999978, 18.563182681000058 ], [ -72.341881538999985, 18.56340237400002 ], [ -72.342551692999905, 18.56348296300007 ], [ -72.343574719999935, 18.563657452000029 ], [ -72.344520092999971, 18.564026487000092 ], [ -72.344982860999892, 18.564264223 ], [ -72.345370886999945, 18.564483119000045 ], [ -72.345886918999895, 18.56488167700013 ], [ -72.346606648999966, 18.565372031000038 ], [ -72.347108861999857, 18.565468020000083 ], [ -72.347108938999952, 18.565468026000076 ], [ -72.347537781999904, 18.565456276000134 ], [ -72.348394993999932, 18.565503904000025 ] ] ] } }
]
}
